NORAD_CAT_ID,OBJECT_NAME,OBJECT_TYPE,EPOCH,MEAN_MOTION,ECCENTRICITY,INCLINATION,RA_OF_ASC_NODE,ARG_OF_PERICENTER,MEAN_ANOMALY,BSTAR,MEAN_MOTION_DOT,MEAN_MOTION_DDOT,TLE_LINE0,TLE_LINE1,TLE_LINE2,SEMIMAJOR_AXIS,PERIOD,APOGEE,PERIGEE,DECAYED
51719.0,STARLINK-3540,PAYLOAD,2022-02-25 16:00:01,15.77032169,0.0001494,53.2178,119.4622,288.9235,212.4956,-0.0057281,-0.00860172,0.0,0 STARLINK-3540,1 51719U 22016F   22056.66668981 -.00860172  00000-0 -57281-2 0  9990,2 51719  53.2178 119.4622 0001494 288.9235 212.4956 15.77032169  1866,6716.9919999999975,91.311,339.86,337.853,0.0
51719.0,STARLINK-3540,PAYLOAD,2022-02-25 22:00:00,15.76579623,4.78e-05,53.2176,118.2163,0.0877,121.2013,-0.0060334,-0.00884873,0.0,0 STARLINK-3540,1 51719U 22016F   22056.91667824 -.00884873  00000-0 -60334-2 0  9990,2 51719  53.2176 118.2163 0000478   0.0877 121.2013 15.76579623  1363,6718.276999999999,91.337,340.463,339.821,0.0
51719.0,STARLINK-3540,PAYLOAD,2022-02-26 06:00:00,15.75943529,0.0001194,53.2178,116.5594,67.6458,146.2414,-0.0061165,-0.0087348,0.0,0 STARLINK-3540,1 51719U 22016F   22057.25001157 -.00873480  00000-0 -61165-2 0  9994,2 51719  53.2178 116.5594 0001194  67.6458 146.2414 15.75943529  1950,6720.085,91.374,342.7519999999999,341.147,0.0
51719.0,STARLINK-3540,PAYLOAD,2022-02-26 14:00:01,15.75313428,0.0001144,53.2175,114.9057,64.2855,241.4409,-0.0062809,-0.00872412,0.0,0 STARLINK-3540,1 51719U 22016F   22057.58334491 -.00872412  00000-0 -62809-2 0  9990,2 51719  53.2175 114.9057 0001144  64.2855 241.4409 15.75313428  1469,6721.876,91.41,344.51,342.972,0.0
51719.0,STARLINK-3540,PAYLOAD,2022-02-26 22:00:00,15.74684628,0.0001038,53.2174,113.2499,61.2271,335.5842,-0.0064611,-0.00872895,0.0,0 STARLINK-3540,1 51719U 22016F   22057.91667824 -.00872895  00000-0 -64611-2 0  9994,2 51719  53.2174 113.2499 0001038  61.2271 335.5842 15.74684628  1526,6723.666,91.447,346.22900000000016,344.833,0.0
51719.0,STARLINK-3540,PAYLOAD,2022-02-27 06:00:00,15.74050092,0.0001333,53.2175,111.5976,48.5976,78.5423,-0.0065518,-0.00862176,0.0,0 STARLINK-3540,1 51719U 22016F   22058.25001157 -.00862176  00000-0 -65518-2 0  9991,2 51719  53.2175 111.5976 0001333  48.5976  78.5423 15.74050092  2102,6725.473000000001,91.484,348.2340000000001,346.441,0.0
51719.0,STARLINK-3540,PAYLOAD,2022-02-27 14:00:01,15.73256759,0.0001293,53.2175,109.9484,56.2732,160.4571,-0.0005909,-0.00082936,0.0,0 STARLINK-3540,1 51719U 22016F   22058.58334491 -.00082936  00000-0 -59090-3 0  9994,2 51719  53.2175 109.9484 0001293  56.2732 160.4571 15.73256759  2166,6727.733,91.53,350.468,348.728,0.0
51719.0,STARLINK-3540,PAYLOAD,2022-02-27 22:00:00,15.73206195,0.0001221,53.2178,108.2971,56.1611,249.5294,-2.085e-05,-3.545e-05,0.0,0 STARLINK-3540,1 51719U 22016F   22058.91667824 -.00003545  00000-0 -20850-4 0  9992,2 51719  53.2178 108.2971 0001221  56.1611 249.5294 15.73206195  1673,6727.878000000002,91.533,350.564,348.921,0.0
51719.0,STARLINK-3540,PAYLOAD,2022-02-28 06:00:00,15.73189562,0.0001433,53.2189,106.6537,65.375,329.1756,6.338e-05,8.28e-05,0.0,0 STARLINK-3540,1 51719U 22016F   22059.25001157  .00008280  00000-0  63380-4 0  9995,2 51719  53.2189 106.6537 0001433  65.3750 329.1756 15.73189562  2268,6727.925,91.534,350.754,348.826,0.0
51719.0,STARLINK-3540,PAYLOAD,2022-02-28 14:00:01,15.73167064,0.0001534,53.2182,105.006,58.0549,65.4115,0.00062908,0.00088477,0.0,0 STARLINK-3540,1 51719U 22016F   22059.58334491  .00088477  00000-0  62908-3 0  9991,2 51719  53.2182 105.0060 0001534  58.0549  65.4115 15.73167064  1780,6727.989000000001,91.535,350.886,348.82199999999995,0.0
51719.0,STARLINK-3540,PAYLOAD,2022-02-28 22:00:00,15.73207189,0.0001346,53.2181,103.3544,65.1129,147.2862,0.00041461,0.00057988,0.0,0 STARLINK-3540,1 51719U 22016F   22059.91667824  .00057988  00000-0  41461-3 0  9991,2 51719  53.2181 103.3544 0001346  65.1129 147.2862 15.73207189  1838,6727.875,91.533,350.645,348.834,0.0
51719.0,STARLINK-3540,PAYLOAD,2022-03-01 06:00:00,15.73273251,0.000132,53.2183,101.7055,63.7042,237.6502,-0.00068336,-0.0009574,0.0,0 STARLINK-3540,1 51719U 22016F   22060.25001157 -.00095740  00000-0 -68336-3 0  9991,2 51719  53.2183 101.7055 0001320  63.7042 237.6502 15.73273251  2423,6727.686,91.529,350.439,348.663,0.0
51719.0,STARLINK-3540,PAYLOAD,2022-03-01 14:00:01,15.73185251,0.0001367,53.2181,100.0574,50.2066,340.1173,0.00057949,0.00081448,0.0,0 STARLINK-3540,1 51719U 22016F   22060.58334491  .00081448  00000-0  57949-3 0  9993,2 51719  53.2181 100.0574 0001367  50.2066 340.1173 15.73185251  1949,6727.937,91.534,350.722,348.8830000000001,0.0
51719.0,STARLINK-3540,PAYLOAD,2022-03-01 22:00:01,15.73207519,0.0001169,53.2181,98.4059,57.2096,62.125,0.00047075,0.00065988,0.0,0 STARLINK-3540,1 51719U 22016F   22060.91668981  .00065988  00000-0  47075-3 0  9994,2 51719  53.2181  98.4059 0001169  57.2096  62.1250 15.73207519  2521,6727.874,91.533,350.525,348.952,0.0
51719.0,STARLINK-3540,PAYLOAD,2022-03-02 14:00:01,15.73211518,0.0001283,53.2173,95.1086,43.3861,253.8511,0.00052214,0.00073337,0.0,0 STARLINK-3540,1 51719U 22016F   22061.58334491  .00073337  00000-0  52214-3 0  9992,2 51719  53.2173  95.1086 0001283  43.3861 253.8511 15.73211518  2634,6727.861999999999,91.533,350.591,348.86400000000015,0.0
51719.0,STARLINK-3540,PAYLOAD,2022-03-02 22:00:00,15.73252364,0.0001137,53.2172,93.4569,54.9734,331.2283,-0.00015911,-0.00022939,0.0,0 STARLINK-3540,1 51719U 22016F   22061.91667824 -.00022939  00000-0 -15911-3 0  9995,2 51719  53.2172  93.4569 0001137  54.9734 331.2283 15.73252364  2681,6727.746,91.53,350.376,348.846,0.0
51719.0,STARLINK-3540,PAYLOAD,2022-03-03 14:00:01,15.73164058,0.0001319,53.2173,90.1597,44.8282,159.2978,0.00044398,0.00062055,0.0,0 STARLINK-3540,1 51719U 22016F   22062.58334491  .00062055  00000-0  44398-3 0  9992,2 51719  53.2173  90.1597 0001319  44.8282 159.2978 15.73164058  2798,6727.998000000001,91.535,350.75,348.975,0.0
51719.0,STARLINK-3540,PAYLOAD,2022-03-03 18:00:00,15.73068226,0.0001761,53.2173,89.3283,56.8171,11.6825,0.0015748,0.00225145,0.0,0 STARLINK-3540,1 51719U 22016F   22062.75001157  .00225145  00000-0  15748-2 0  9998,2 51719  53.2173  89.3283 0001761  56.8171  11.6825 15.73068226  2816,6728.271,91.541,351.321,348.951,0.0
51719.0,STARLINK-3540,PAYLOAD,2022-03-03 22:00:00,15.7320399,0.0001626999999999,53.2175,88.5018,64.7883,228.1147,7.4295000000000015e-06,4.22e-06,0.0,0 STARLINK-3540,1 51719U 22016F   22062.91667824  .00000422  00000-0  74295-5 0  9999,2 51719  53.2175  88.5018 0001627  64.7883 228.1147 15.73203990  2310,6727.884,91.533,350.843,348.654,0.0
51719.0,STARLINK-3540,PAYLOAD,2022-03-04 06:00:02,15.73276731,0.000129,53.2174,86.8595,49.0621,333.0527,-0.00062093,-0.0008715,0.0,0 STARLINK-3540,1 51719U 22016F   22063.25002315 -.00087150  00000-0 -62093-3 0  9991,2 51719  53.2174  86.8595 0001290  49.0621 333.0527 15.73276731  2896,6727.676,91.529,350.409,348.6740000000001,0.0
51719.0,STARLINK-3540,PAYLOAD,2022-03-04 14:00:01,15.7320411,0.0001337,53.2168,85.2106,42.5879,68.5146,0.00038527,0.00053806,0.0,0 STARLINK-3540,1 51719U 22016F   22063.58335648  .00053806  00000-0  38527-3 0  9999,2 51719  53.2168  85.2106 0001337  42.5879  68.5146 15.73204110  2412,6727.8830000000025,91.533,350.648,348.849,0.0
51719.0,STARLINK-3540,PAYLOAD,2022-03-04 22:00:00,15.73244396,0.0001123,53.2168,83.559,53.7393,146.256,-0.00010108,-0.00014808,0.0,0 STARLINK-3540,1 51719U 22016F   22063.91667824 -.00014808  00000-0 -10108-3 0  9996,2 51719  53.2168  83.5590 0001123  53.7393 146.2560 15.73244396  3008,6727.769,91.531,350.389,348.87800000000016,0.0
51719.0,STARLINK-3540,PAYLOAD,2022-03-05 06:00:00,15.73233382,0.0001295,53.2172,81.9108,51.7044,237.2713,-0.00070187,-0.00098121,0.0,0 STARLINK-3540,1 51719U 22016F   22064.25001157 -.00098121  00000-0 -70187-3 0  9998,2 51719  53.2172  81.9108 0001295  51.7044 237.2713 15.73233382  2521,6727.8,91.531,350.536,348.7940000000001,0.0
51719.0,STARLINK-3540,PAYLOAD,2022-03-05 14:00:01,15.73209414,0.0001388,53.2172,80.2618,43.7277,334.1855,-0.00031856,-0.00045107,0.0,0 STARLINK-3540,1 51719U 22016F   22064.58334491 -.00045107  00000-0 -31856-3 0  9990,2 51719  53.2172  80.2618 0001388  43.7277 334.1855 15.73209414  2579,6727.868,91.533,350.667,348.8,0.0
51719.0,STARLINK-3540,PAYLOAD,2022-03-05 16:00:00,15.73219889,0.0001375,53.2174,79.8488,47.5952,82.5462,-0.00059314,-0.00083116,0.0,0 STARLINK-3540,1 51719U 22016F   22064.66667824 -.00083116  00000-0 -59314-3 0  9999,2 51719  53.2174  79.8488 0001375  47.5952  82.5462 15.73219889  3114,6727.8380000000025,91.532,350.629,348.778,0.0
51719.0,STARLINK-3540,PAYLOAD,2022-03-05 22:00:01,15.73139559,0.0001330999999999,53.2175,78.6103,57.6282,49.2797,0.00067148,0.00094437,0.0,0 STARLINK-3540,1 51719U 22016F   22064.91668981  .00094437  00000-0  67148-3 0  9992,2 51719  53.2175  78.6103 0001331  57.6282  49.2797 15.73139559  2627,6728.066999999999,91.537,350.82800000000015,349.037,0.0
51719.0,STARLINK-3540,PAYLOAD,2022-03-06 06:00:00,15.73237952,0.0001428,53.2175,76.9624,51.4692,144.2876,-0.0004666,-0.00065702,0.0,0 STARLINK-3540,1 51719U 22016F   22065.25001157 -.00065702  00000-0 -46660-3 0  9997,2 51719  53.2175  76.9624 0001428  51.4692 144.2876 15.73237952  3216,6727.7869999999975,91.531,350.61300000000006,348.691,0.0
51719.0,STARLINK-3540,PAYLOAD,2022-03-06 14:00:01,15.73210887,0.000131,53.2169,75.3132,44.1086,240.5833,0.00021362,0.00029479,0.0,0 STARLINK-3540,1 51719U 22016F   22065.58334491  .00029479  00000-0  21362-3 0  9994,2 51719  53.2169  75.3132 0001310  44.1086 240.5833 15.73210887  3268,6727.864000000001,91.533,350.61,348.848,0.0
51719.0,STARLINK-3540,PAYLOAD,2022-03-06 22:00:00,15.73211049,0.000108,53.2171,73.6618,53.7704,319.8786,-0.00026147,-0.0003717,0.0,0 STARLINK-3540,1 51719U 22016F   22065.91667824 -.00037170  00000-0 -26147-3 0  9995,2 51719  53.2171  73.6618 0001080  53.7704 319.8786 15.73211049  3312,6727.864000000001,91.533,350.455,349.00199999999984,0.0
